start=new Date('2023-04-18T00:00:00.000Z').valueOf();
sats=[{"MEAN_MOTION":"15.06425325","APOAPSIS":"548.163","TLE_LINE2":"2 48009  53.0559  20.7229 0001483  70.5772 289.5377 15.06425325115502","CENTER_NAME":"EARTH","TLE_LINE1":"1 48009U 21024AJ  23107.90101859  .00036718  00000-0  24694-2 0  9998","MEAN_MOTION_DOT":"0.00036718","ARG_OF_PERICENTER":"70.5772","REV_AT_EPOCH":"11550","EPOCH":"2023-04-17T21:37:28.006176","MEAN_MOTION_DDOT":"0.0000000000000","INCLINATION":"53.0559","LAUNCH_DATE":"2021-03-24","RCS_SIZE":"LARGE","PERIOD":"95.591","ELEMENT_SET_NO":"999","CLASSIFICATION_TYPE":"U","SEMIMAJOR_AXIS":"6925.271","EPHEMERIS_TYPE":"0","ECCENTRICITY":"0.00014830","PERIAPSIS":"546.109","MEAN_ANOMALY":"289.5377","BSTAR":"0.00246940000000","OBJECT_ID":"2021-024AJ","MEAN_ELEMENT_THEORY":"SGP4","COUNTRY_CODE":"US","TIME_SYSTEM":"UTC","RA_OF_ASC_NODE":"20.7229","DECAY_DATE":null,"NORAD_CAT_ID":"48009","REF_FRAME":"TEME","SITE":"AFETR","OBJECT_TYPE":"PAYLOAD","FILE":"3889391","GP_ID":"230262984","OBJECT_NAME":"STARLINK-2153"},{"MEAN_MOTION_DOT":"0.00039265","TLE_LINE1":"1 48010U 21024AK  23107.25044303  .00039265  00000-0  26432-2 0  9990","CENTER_NAME":"EARTH","MEAN_MOTION":"15.06358779","TLE_LINE2":"2 48010  53.0546  43.6446 0001475 124.4818 235.6310 15.06358779115121","APOAPSIS":"548.361","SEMIMAJOR_AXIS":"6925.475","EPHEMERIS_TYPE":"0","ELEMENT_SET_NO":"999","CLASSIFICATION_TYPE":"U","PERIOD":"95.595","RCS_SIZE":"LARGE","REV_AT_EPOCH":"11512","ARG_OF_PERICENTER":"124.4818","EPOCH":"2023-04-17T06:00:38.277792","MEAN_MOTION_DDOT":"0.0000000000000","LAUNCH_DATE":"2021-03-24","INCLINATION":"53.0546","MEAN_ELEMENT_THEORY":"SGP4","TIME_SYSTEM":"UTC","COUNTRY_CODE":"US","BSTAR":"0.00264320000000","OBJECT_ID":"2021-024AK","MEAN_ANOMALY":"235.6310","PERIAPSIS":"546.318","ECCENTRICITY":"0.00014750","GP_ID":"230233077","FILE":"3889215","OBJECT_NAME":"STARLINK-2226","NORAD_CAT_ID":"48010","REF_FRAME":"TEME","SITE":"AFETR","OBJECT_TYPE":"PAYLOAD","DECAY_DATE":null,"RA_OF_ASC_NODE":"43.6446"},{"OBJECT_ID":"2021-024AL","BSTAR":"0.00264710000000","TIME_SYSTEM":"UTC","COUNTRY_CODE":"US","MEAN_ELEMENT_THEORY":"SGP4","PERIAPSIS":"546.375","ECCENTRICITY":"0.00013220","MEAN_ANOMALY":"278.9227","REF_FRAME":"TEME","NORAD_CAT_ID":"48011","SITE":"AFETR","OBJECT_TYPE":"PAYLOAD","FILE":"3889215","GP_ID":"230232344","OBJECT_NAME":"STARLINK-2272","DECAY_DATE":null,"RA_OF_ASC_NODE":"23.8402","TLE_LINE1":"1 48011U 21024AL  23107.20712103  .00039341  00000-0  26471-2 0  9994","MEAN_MOTION_DOT":"0.00039341","MEAN_MOTION":"15.06374892","APOAPSIS":"548.206","TLE_LINE2":"2 48011  53.0549  23.8402 0001322  81.1912 278.9227 15.06374892115459","CENTER_NAME":"EARTH","ELEMENT_SET_NO":"999","CLASSIFICATION_TYPE":"U","EPHEMERIS_TYPE":"0","SEMIMAJOR_AXIS":"6925.426","REV_AT_EPOCH":"11545","ARG_OF_PERICENTER":"81.1912","LAUNCH_DATE":"2021-03-24","INCLINATION":"53.0549","EPOCH":"2023-04-17T04:58:15.256992","MEAN_MOTION_DDOT":"0.0000000000000","RCS_SIZE":"LARGE","PERIOD":"95.594"},{"GP_ID":"230264235","FILE":"3889391","OBJECT_NAME":"STARLINK-2243","REF_FRAME":"TEME","NORAD_CAT_ID":"48013","OBJECT_TYPE":"PAYLOAD","SITE":"AFETR","DECAY_DATE":null,"RA_OF_ASC_NODE":"5.7607","COUNTRY_CODE":"US","TIME_SYSTEM":"UTC","MEAN_ELEMENT_THEORY":"SGP4","OBJECT_ID":"2021-024AN","BSTAR":"0.00280850000000","MEAN_ANOMALY":"292.7868","PERIAPSIS":"546.182","ECCENTRICITY":"0.00013190","EPHEMERIS_TYPE":"0","SEMIMAJOR_AXIS":"6925.231","ELEMENT_SET_NO":"999","CLASSIFICATION_TYPE":"U","RCS_SIZE":"LARGE","PERIOD":"95.590","REV_AT_EPOCH":"11571","ARG_OF_PERICENTER":"67.3260","LAUNCH_DATE":"2021-03-24","INCLINATION":"53.0551","MEAN_MOTION_DDOT":"0.0000000000000","EPOCH":"2023-04-17T21:26:11.196096","MEAN_MOTION_DOT":"0.00041844","TLE_LINE1":"1 48013U 21024AN  23107.89318514  .00041844  00000-0  28085-2 0  9993","CENTER_NAME":"EARTH","MEAN_MOTION":"15.06438427","APOAPSIS":"548.009","TLE_LINE2":"2 48013  53.0551   5.7607 0001319  67.3260 292.7868 15.06438427115717"},{"DECAY_DATE":null,"RA_OF_ASC_NODE":"330.8487","GP_ID":"230262484","FILE":"3889391","OBJECT_NAME":"STARLINK-2283","NORAD_CAT_ID":"48014","REF_FRAME":"TEME","SITE":"AFETR","OBJECT_TYPE":"PAYLOAD","MEAN_ANOMALY":"282.3370","ECCENTRICITY":"0.00011730","PERIAPSIS":"546.448","MEAN_ELEMENT_THEORY":"SGP4","TIME_SYSTEM":"UTC","COUNTRY_CODE":"US","BSTAR":"0.00236430000000","OBJECT_ID":"2021-024AP","RCS_SIZE":"LARGE","PERIOD":"95.593","REV_AT_EPOCH":"11625","ARG_OF_PERICENTER":"77.7750","EPOCH":"2023-04-17T21:49:25.231584","MEAN_MOTION_DDOT":"0.0000000000000","LAUNCH_DATE":"2021-03-24","INCLINATION":"53.0549","SEMIMAJOR_AXIS":"6925.395","EPHEMERIS_TYPE":"0","ELEMENT_SET_NO":"999","CLASSIFICATION_TYPE":"U","CENTER_NAME":"EARTH","MEAN_MOTION":"15.06384896","APOAPSIS":"548.072","TLE_LINE2":"2 48014  53.0549 330.8487 0001173  77.7750 282.3370 15.06384896116253","MEAN_MOTION_DOT":"0.00035096","TLE_LINE1":"1 48014U 21024AP  23107.90931981  .00035096  00000-0  23643-2 0  9992"},{"RA_OF_ASC_NODE":"316.0586","DECAY_DATE":null,"GP_ID":"230262734","FILE":"3889391","OBJECT_NAME":"STARLINK-2284","REF_FRAME":"TEME","NORAD_CAT_ID":"48016","SITE":"AFETR","OBJECT_TYPE":"PAYLOAD","MEAN_ANOMALY":"264.4713","PERIAPSIS":"546.175","ECCENTRICITY":"0.00012960","COUNTRY_CODE":"US","TIME_SYSTEM":"UTC","MEAN_ELEMENT_THEORY":"SGP4","OBJECT_ID":"2021-024AR","BSTAR":"0.00558910000000","PERIOD":"95.589","RCS_SIZE":"LARGE","ARG_OF_PERICENTER":"95.6424","REV_AT_EPOCH":"11645","INCLINATION":"53.0536","LAUNCH_DATE":"2021-03-24","EPOCH":"2023-04-17T20:55:44.143680","MEAN_MOTION_DDOT":"0.0000000000000","EPHEMERIS_TYPE":"0","SEMIMAJOR_AXIS":"6925.207","ELEMENT_SET_NO":"999","CLASSIFICATION_TYPE":"U","CENTER_NAME":"EARTH","MEAN_MOTION":"15.06446093","TLE_LINE2":"2 48016  53.0536 316.0586 0001296  95.6424 264.4713 15.06446093116452","APOAPSIS":"547.970","MEAN_MOTION_DOT":"0.00084071","TLE_LINE1":"1 48016U 21024AR  23107.87203870  .00084071  00000-0  55891-2 0  9996"},{"RA_OF_ASC_NODE":"28.7834","DECAY_DATE":null,"GP_ID":"230231844","FILE":"3889215","OBJECT_NAME":"STARLINK-2282","REF_FRAME":"TEME","NORAD_CAT_ID":"48018","OBJECT_TYPE":"PAYLOAD","SITE":"AFETR","MEAN_ANOMALY":"279.1486","ECCENTRICITY":"0.00010460","PERIAPSIS":"546.553","COUNTRY_CODE":"US","TIME_SYSTEM":"UTC","MEAN_ELEMENT_THEORY":"SGP4","OBJECT_ID":"2021-024AT","BSTAR":"0.00004878800000","PERIOD":"95.593","RCS_SIZE":"LARGE","REV_AT_EPOCH":"11539","ARG_OF_PERICENTER":"80.9621","INCLINATION":"53.0558","LAUNCH_DATE":"2021-03-24","MEAN_MOTION_DDOT":"0.0000000000000","EPOCH":"2023-04-17T06:21:16.080480","EPHEMERIS_TYPE":"0","SEMIMAJOR_AXIS":"6925.412","ELEMENT_SET_NO":"999","CLASSIFICATION_TYPE":"U","CENTER_NAME":"EARTH","MEAN_MOTION":"15.06379324","TLE_LINE2":"2 48018  53.0558  28.7834 0001046  80.9621 279.1486 15.06379324115394","APOAPSIS":"548.001","MEAN_MOTION_DOT":"0.00000445","TLE_LINE1":"1 48018U 21024AT  23107.26476945  .00000445  00000-0  48788-4 0  9998"},{"CENTER_NAME":"EARTH","TLE_LINE2":"2 48019  53.0554  19.1105 0001157  64.3567 295.7542 15.06370928115459","APOAPSIS":"548.104","MEAN_MOTION":"15.06370928","MEAN_MOTION_DOT":"0.00039439","TLE_LINE1":"1 48019U 21024AU  23107.14770519  .00039439  00000-0  26539-2 0  9993","PERIOD":"95.594","RCS_SIZE":"LARGE","EPOCH":"2023-04-17T03:32:41.728416","MEAN_MOTION_DDOT":"0.0000000000000","INCLINATION":"53.0554","LAUNCH_DATE":"2021-03-24","REV_AT_EPOCH":"11545","ARG_OF_PERICENTER":"64.3567","SEMIMAJOR_AXIS":"6925.438","EPHEMERIS_TYPE":"0","CLASSIFICATION_TYPE":"U","ELEMENT_SET_NO":"999","MEAN_ANOMALY":"295.7542","ECCENTRICITY":"0.00011570","PERIAPSIS":"546.501","MEAN_ELEMENT_THEORY":"SGP4","TIME_SYSTEM":"UTC","COUNTRY_CODE":"US","BSTAR":"0.00265390000000","OBJECT_ID":"2021-024AU","DECAY_DATE":null,"RA_OF_ASC_NODE":"19.1105","OBJECT_NAME":"STARLINK-2285","FILE":"3889215","GP_ID":"230232094","OBJECT_TYPE":"PAYLOAD","SITE":"AFETR","NORAD_CAT_ID":"48019","REF_FRAME":"TEME"},{"MEAN_ELEMENT_THEORY":"SGP4","COUNTRY_CODE":"US","TIME_SYSTEM":"UTC","BSTAR":"0.00226790000000","OBJECT_ID":"2021-024AV","MEAN_ANOMALY":"271.2481","PERIAPSIS":"546.291","ECCENTRICITY":"0.00011540","OBJECT_NAME":"STARLINK-2294","FILE":"3889391","GP_ID":"230262985","OBJECT_TYPE":"PAYLOAD","SITE":"AFETR","NORAD_CAT_ID":"48020","REF_FRAME":"TEME","DECAY_DATE":null,"RA_OF_ASC_NODE":"331.0340","MEAN_MOTION_DOT":"0.00033698","TLE_LINE1":"1 48020U 21024AV  23107.92041043  .00033698  00000-0  22679-2 0  9996","CENTER_NAME":"EARTH","APOAPSIS":"547.889","TLE_LINE2":"2 48020  53.0543 331.0340 0001154  88.8640 271.2481 15.06440235116198","MEAN_MOTION":"15.06440235","SEMIMAJOR_AXIS":"6925.225","EPHEMERIS_TYPE":"0","CLASSIFICATION_TYPE":"U","ELEMENT_SET_NO":"999","PERIOD":"95.590","RCS_SIZE":"LARGE","EPOCH":"2023-04-17T22:05:23.461152","MEAN_MOTION_DDOT":"0.0000000000000","INCLINATION":"53.0543","LAUNCH_DATE":"2021-03-24","REV_AT_EPOCH":"11619","ARG_OF_PERICENTER":"88.8640"},{"MEAN_ELEMENT_THEORY":"SGP4","COUNTRY_CODE":"US","TIME_SYSTEM":"UTC","BSTAR":"0.00177120000000","OBJECT_ID":"2021-024AW","MEAN_ANOMALY":"223.1991","PERIAPSIS":"546.289","ECCENTRICITY":"0.00013900","OBJECT_NAME":"STARLINK-2301","GP_ID":"230263235","FILE":"3889391","OBJECT_TYPE":"PAYLOAD","SITE":"AFETR","NORAD_CAT_ID":"48021","REF_FRAME":"TEME","DECAY_DATE":null,"RA_OF_ASC_NODE":"335.8811","MEAN_MOTION_DOT":"0.00026190","TLE_LINE1":"1 48021U 21024AW  23107.86645238  .00026190  00000-0  17712-2 0  9997","CENTER_NAME":"EARTH","TLE_LINE2":"2 48021  53.0545 335.8811 0001390 136.9107 223.1991 15.06387580116130","APOAPSIS":"548.214","MEAN_MOTION":"15.06387580","SEMIMAJOR_AXIS":"6925.387","EPHEMERIS_TYPE":"0","CLASSIFICATION_TYPE":"U","ELEMENT_SET_NO":"999","RCS_SIZE":"LARGE","PERIOD":"95.593","EPOCH":"2023-04-17T20:47:41.485632","MEAN_MOTION_DDOT":"0.0000000000000","LAUNCH_DATE":"2021-03-24","INCLINATION":"53.0545","ARG_OF_PERICENTER":"136.9107","REV_AT_EPOCH":"11613"}];
